#cP2011 10 11  0  0  0.00000000      96 d+D   IGS08 FIT AIUB
## 1657 172800.00000000   900.00000000 55845 0.0000000000000
+   53   G01G02G03G04G05G06G07G08G09G10G11G12G13G14G15G16G17
+        G18G19G20G21G22G23G25G26G27G28G29G30G31G32R01R02R03
+        R05R06R07R08R09R10R11R12R13R15R16R17R18R19R20R21R22
+        R23R24  0  0  0  0  0  0  0  0  0  0  0  0  0  0  0
+          0  0  0  0  0  0  0  0  0  0  0  0  0  0  0  0  0
++         6  6  4  7  4  4  5  5  5  4  4  4  4  4  4  4  4
++         4  4  4  6  4  4  4  4  6  4  4  4  5  4  4  4  6
++         4  4  5  4  6  6  6  6  6  6  6  4  5  4  4  5  5
++         4  5  0  0  0  0  0  0  0  0  0  0  0  0  0  0  0
++         0  0  0  0  0  0  0  0  0  0  0  0  0  0  0  0  0
%c M  cc GPS ccc cccc cccc cccc cccc ccccc ccccc ccccc ccccc
%c cc cc ccc ccc cccc cccc cccc cccc ccccc ccccc ccccc ccccc
%f  1.2500000  1.025000000  0.00000000000  0.000000000000000
%f  0.0000000  0.000000000  0.00000000000  0.000000000000000
%i    0    0    0    0      0      0      0      0         0
%i    0    0    0    0      0      0      0      0         0
/* Center for Orbit Determination in Europe (CODE)          
/* Final GNSS orbits and GPS clocks for year-day 11284      
/* Note: Middle day of a 3-day arc GPS/GLONASS solution     
/* PCV:IGS08      OL/AL:FES2004  NONE     YN ORB:CoN CLK:CoN
*  2011 10 11 10 30  0.00000000
PG01 -16214.145732 -13263.770106 -16341.463761     16.914589
PG02  -7530.346415  14584.998966  20871.439078    360.290419
PG03   9143.948011 -24302.059191  -5223.073008    779.827212
PG04 -21825.706854   7267.664477  13336.181218    257.177706
PG05   -335.875174  22942.547090  13264.854307   -230.196106
PG06  13935.435754 -22417.089668  -1051.642091    -51.768783
PG07 -25631.898115  -6168.096444   4184.660066     31.179426
PG08 -26138.854019  -1534.829450  -5985.749008      0.040255
PG09  12237.316325  14177.530618 -19372.122430    111.009905
PG10 -13454.951693   7620.979153  21348.202420    -15.869029
PG11 -10464.851458 -14788.795748 -19854.314992   -193.748227
PG12  12027.949770  23555.489335   3308.290647     27.810032
PG13 -14322.396829  -5320.191496  21603.323294    247.204234
PG14  20355.969080 -12984.802384 -10720.480748    176.305375
PG15    868.218756  20087.562903 -17253.915924   -102.989070
PG16    125.623304 -23224.830911  12619.501566   -202.720899
PG17 -20167.214600  12949.951704 -11037.039896    171.209546
PG18  17748.922452   9661.012422 -17077.404147    161.593644
PG19   3279.150209 -20709.847799 -16111.370994   -193.084534
PG20 -13860.354846 -22351.603230   3808.668364     54.216861
PG21  26565.104211   4123.711618   1057.137403   -177.165680
PG22  14642.710699  -5944.556818 -21167.650739    144.048701
PG23  -8049.207819 -13773.363922  21201.290153    268.849379
PG25  16838.049590  16078.576702  12779.876406     22.832006
PG26 -10557.886318  22190.654808 -10143.458818   -186.789286
PG27   6440.731869  14409.340801 -20790.566673 999999.999999
PG28 -14988.742018   1281.949421 -21388.261989     74.643313
PG29  14693.449733   5630.409395  21456.626196    247.428356
PG30  16557.340185    179.246323  20409.140076     71.202365
PG31  18975.906672  -8794.624545  16701.315260    153.827229
PG32  -6680.537915 -25808.470295  -2491.632965   -343.589477
PR01   1985.274884 -21522.951971 -13550.722394 999999.999999
PR02  -7281.153941 -24096.562149   4176.505988 999999.999999
PR03 -23503.259244  -9211.095837   3968.912874 999999.999999
PR05  -2039.460717  21448.199951  13651.571209 999999.999999
PR06   6935.704219  24323.552478  -3446.029740 999999.999999
PR07  13019.602615  10692.056231 -19167.608229 999999.999999
PR08   9868.829852  -6162.357326 -22690.533422 999999.999999
PR09  12221.951839  13050.972699 -18251.080234 999999.999999
PR10  23391.377932   9217.661815  -4020.473615 999999.999999
PR11  21651.222412    339.364959  13538.590837 999999.999999
PR12   6293.798260  -9150.476588  22921.889517 999999.999999
PR13 -12181.285331 -12684.710578  18469.684945 999999.999999
PR15 -20164.574540   1005.195448 -15523.417270 999999.999999
PR16  -6420.486640   9143.209188 -22972.141417 999999.999999
PR17 -14238.189891   -696.027654 -21175.235906 999999.999999
PR18 -20320.317647  12981.230470  -8468.279648 999999.999999
PR19 -14813.825614  18754.214507   8904.336040 999999.999999
PR20   -149.317551  13644.303064  21564.265038 999999.999999
PR21  14042.224911    828.209265  21293.511317 999999.999999
PR22  20178.065136 -12655.633359   8918.642783 999999.999999
PR23  14570.744007 -18938.802584  -8948.265880 999999.999999
PR24    605.839501 -14096.877975 -21278.465882 999999.999999
*  2011 10 11 10 45  0.00000000
PG01 -14240.419437 -13269.475408 -18084.234994     16.943526
PG02  -9860.086631  14313.914845  20024.790498    360.292059
PG03   9644.867616 -24489.662188  -2460.657562    779.832176
PG04 -23220.296404   6903.337501  11045.251964    257.188103
PG05  -1234.412836  21544.796265  15393.816355   -230.200610
PG06  14214.662795 -22213.059798   1768.725140    -51.762221
PG07 -24985.926909  -6295.302800   6961.494061     31.181191
PG08 -26631.036764  -1727.241769  -3154.691906      0.040622
PG09  10058.162444  14102.452306 -20676.629920    111.011079
PG10 -14488.080192   5345.762643  21397.093008    -15.868304
PG11  -8251.877142 -15277.553934 -20497.308526   -193.751137
PG12  11935.751088  23829.280676    441.614072     27.812511
PG13 -12731.173752  -7270.643509  22017.419378    247.202594
PG14  19633.821171 -11779.973377 -13156.748434    176.306939
PG15   -341.397559  21540.780747 -15406.318647   -102.987751
PG16    909.009462 -21841.770528  14884.150147   -202.722912
PG17 -19498.209584  11668.556233 -13406.350051    171.208008
PG18  18348.903779  11479.953310 -15291.280436    161.594927
PG19   4548.112889 -21910.933333 -14048.676315   -193.087912
PG20 -13702.947031 -22764.274805   1033.194066     54.217174
PG21  26312.073264   4386.976717   3802.347122   -177.167752
PG22  15633.661644  -3692.501561 -20982.380378    144.048362
PG23  -6593.667504 -15657.557090  20346.613279    268.846379
PG25  17233.489354  17360.409392  10352.827273     22.833693
PG26 -11298.321074  22798.587632  -7455.434891   -186.801014
PG27   3899.912457  14337.510946 -21409.449839    314.025005
PG28 -15917.954794  -1056.595896 -20757.342949     74.645860
PG29  13232.047774   7610.927382  21798.397542    247.431275
PG30  17674.590217   2247.783385  19340.412771     71.197318
PG31  20705.833846  -8502.419803  14666.454012    153.831849
PG32  -6293.534405 -25452.786564  -5261.934723   -343.595343
PR01   2323.651085 -19726.953288 -16005.100717 999999.999999
PR02  -7480.755758 -24373.990127    996.024317 999999.999999
PR03 -22899.555147  -8822.248359   7112.276887 999999.999999
PR05  -2383.697205  19641.884159  16095.208166 999999.999999
PR06   7126.389770  24509.652811   -251.025664 999999.999999
PR07  13750.849105  12813.971933 -17262.652121 999999.999999
PR08  10545.346358  -3426.418841 -22962.363214 999999.999999
PR09   9991.651824  12281.753410 -20048.304389 999999.999999
PR10  22779.595897   8837.182324  -7174.166818 999999.999999
PR11  23141.913457    580.649827  10791.085609 999999.999999
PR12   8985.153182  -8373.710496  22299.551077 999999.999999
PR13  -9904.355177 -11938.852684  20239.841817 999999.999999
PR15 -21908.991899    692.669570 -12958.936525 999999.999999
PR16  -9103.140250   8382.154289 -22355.529395 999999.999999
PR17 -12248.984623  -2489.656832 -22250.689902 999999.999999
PR18 -19337.168092  12238.061349 -11364.930743 999999.999999
PR19 -15370.112353  19492.924647   5854.985978 999999.999999
PR20  -1970.134863  15468.656968  20205.274272 999999.999999
PR21  12066.009972   2656.707920  22321.695393 999999.999999
PR22  19166.234313 -11855.131545  11798.638786 999999.999999
PR23  15124.723248 -19681.523334  -5904.988535 999999.999999
PR24   2372.258041 -15910.035820 -19825.306558 999999.999999
EOF
